STARLINK-5941           
1 56013U 23042AD  26021.14294363 -.00003386  00000+0 -23587-3 0  9998
2 56013  43.0063 313.9874 0000973 274.1492  85.9239 15.02507560155767
STARLINK-5942           
1 56014U 23042AE  26022.93820618  .00005427  00000+0  41662-3 0  9995
2 56014  43.0062 292.0870 0001233 274.0422  86.0279 15.02525808156179
STARLINK-5939           
1 56015U 23042AF  26022.80858482  .00013981  00000+0  10476-2 0  9994
2 56015  43.0033 292.8439 0001886 301.7270  58.3388 15.02549083156152
STARLINK-5943           
1 56016U 23042AG  26022.78860950  .00001365  00000+0  11620-3 0  9991
2 56016  43.0037 292.6845 0002181 282.3467  77.7131 15.02517205156159
STARLINK-5934           
1 56017U 23042AH  26022.73323733 -.00003842  00000+0 -26963-3 0  9990
2 56017  43.0081 293.1338 0001598 263.3388  96.7273 15.02512963156147
STARLINK-5945           
1 56018U 23042AJ  26022.92267253  .00003314  00000+0  26037-3 0  9990
2 56018  43.0074 291.9726 0001098 288.7542  71.3181 15.02525155156172
STARLINK-5949           
1 56019U 23042AK  26022.47062510  .00001490  00000+0  12543-3 0  9990
2 56019  43.0053 294.5995 0001568 275.8189  84.2474 15.02521429156104
STARLINK-5912           
1 56020U 23042AL  26022.79304046 -.00001960  00000+0 -13000-3 0  9993
2 56020  43.0007 292.7233 0000633 304.1661  55.9121 15.02548438156151
STARLINK-5907           
1 56021U 23042AM  26022.79635580 -.00003645  00000+0 -25492-3 0  9994
2 56021  42.9979 292.7423 0000486 263.1257  96.9530 15.02537481156155
STARLINK-5783           
1 56022U 23042AN  26022.77972386  .00004381  00000+0  33931-3 0  9994
2 56022  43.0066 292.6198 0001062 267.6896  92.3824 15.02518222156150
STARLINK-5771           
1 56023U 23042AP  26022.78526602  .00001445  00000+0  12206-3 0  9992
2 56023  43.0026 292.6562 0001211 284.9758  75.0950 15.02532304156152
STARLINK-5772           
1 56024U 23042AQ  26022.76973866 -.00000702  00000+0 -36857-4 0  9995
2 56024  43.0045 292.5410 0002245 264.0849  95.9737 15.02524733156154
STARLINK-5766           
1 56025U 23042AR  26022.81300154 -.00001022  00000+0 -60563-4 0  9993
2 56025  43.0035 292.8571 0001248 267.3850  92.6849 15.02539289156155
STARLINK-5770           
1 56026U 23042AS  26022.77862889  .00009352  00000+0  70660-3 0  9997
2 56026  43.0019 292.6108 0001024 243.4951 116.5787 15.02529071156156
STARLINK-5777           
1 56027U 23042AT  26022.91489365  .00003182  00000+0  25065-3 0  9992
2 56027  43.0016 291.9106 0001503 280.0813  79.9859 15.02516850156175
STARLINK-5779           
1 56028U 23042AU  26022.76530114 -.00000241  00000+0 -27526-5 0  9996
2 56028  43.0049 292.5084 0002031 254.2768 105.7850 15.02517935156155
