[{"OBJECT_NAME":"STARLINK-5941","OBJECT_ID":"2023-042AD","EPOCH":"2026-01-21T03:25:50.329632","MEAN_MOTION":15.0250756,"ECCENTRICITY":9.73e-5,"INCLINATION":43.0063,"RA_OF_ASC_NODE":313.9874,"ARG_OF_PERICENTER":274.1492,"MEAN_ANOMALY":85.9239,"EPHEMERIS_TYPE":0,"CLASSIFICATION_TYPE":"U","NORAD_CAT_ID":56013,"ELEMENT_SET_NO":999,"REV_AT_EPOCH":15576,"BSTAR":-0.00023587412,"MEAN_MOTION_DOT":-3.386e-5,"MEAN_MOTION_DDOT":0},{"OBJECT_NAME":"STARLINK-5942","OBJECT_ID":"2023-042AE","EPOCH":"2026-01-22T22:31:01.013952","MEAN_MOTION":15.02525808,"ECCENTRICITY":0.00012332,"INCLINATION":43.0062,"RA_OF_ASC_NODE":292.087,"ARG_OF_PERICENTER":274.0422,"MEAN_ANOMALY":86.0279,"EPHEMERIS_TYPE":0,"CLASSIFICATION_TYPE":"U","NORAD_CAT_ID":56014,"ELEMENT_SET_NO":999,"REV_AT_EPOCH":15617,"BSTAR":0.00041662063,"MEAN_MOTION_DOT":5.427e-5,"MEAN_MOTION_DDOT":0},{"OBJECT_NAME":"STARLINK-5939","OBJECT_ID":"2023-042AF","EPOCH":"2026-01-22T19:24:21.728448","MEAN_MOTION":15.02549083,"ECCENTRICITY":0.00018865,"INCLINATION":43.0033,"RA_OF_ASC_NODE":292.8439,"ARG_OF_PERICENTER":301.727,"MEAN_ANOMALY":58.3388,"EPHEMERIS_TYPE":0,"CLASSIFICATION_TYPE":"U","NORAD_CAT_ID":56015,"ELEMENT_SET_NO":999,"REV_AT_EPOCH":15615,"BSTAR":0.0010476278,"MEAN_MOTION_DOT":0.00013981,"MEAN_MOTION_DDOT":0},{"OBJECT_NAME":"STARLINK-5943","OBJECT_ID":"2023-042AG","EPOCH":"2026-01-22T18:55:35.860800","MEAN_MOTION":15.02517205,"ECCENTRICITY":0.00021818,"INCLINATION":43.0037,"RA_OF_ASC_NODE":292.6845,"ARG_OF_PERICENTER":282.3467,"MEAN_ANOMALY":77.7131,"EPHEMERIS_TYPE":0,"CLASSIFICATION_TYPE":"U","NORAD_CAT_ID":56016,"ELEMENT_SET_NO":999,"REV_AT_EPOCH":15615,"BSTAR":0.00011620235,"MEAN_MOTION_DOT":1.365e-5,"MEAN_MOTION_DDOT":0},{"OBJECT_NAME":"STARLINK-5934","OBJECT_ID":"2023-042AH","EPOCH":"2026-01-22T17:35:51.705312","MEAN_MOTION":15.02512963,"ECCENTRICITY":0.00015984,"INCLINATION":43.0081,"RA_OF_ASC_NODE":293.1338,"ARG_OF_PERICENTER":263.3388,"MEAN_ANOMALY":96.7273,"EPHEMERIS_TYPE":0,"CLASSIFICATION_TYPE":"U","NORAD_CAT_ID":56017,"ELEMENT_SET_NO":999,"REV_AT_EPOCH":15614,"BSTAR":-0.00026963209,"MEAN_MOTION_DOT":-3.842e-5,"MEAN_MOTION_DDOT":0},{"OBJECT_NAME":"STARLINK-5945","OBJECT_ID":"2023-042AJ","EPOCH":"2026-01-22T22:08:38.906592","MEAN_MOTION":15.02525155,"ECCENTRICITY":0.00010985,"INCLINATION":43.0074,"RA_OF_ASC_NODE":291.9726,"ARG_OF_PERICENTER":288.7542,"MEAN_ANOMALY":71.3181,"EPHEMERIS_TYPE":0,"CLASSIFICATION_TYPE":"U","NORAD_CAT_ID":56018,"ELEMENT_SET_NO":999,"REV_AT_EPOCH":15617,"BSTAR":0.00026036765,"MEAN_MOTION_DOT":3.314e-5,"MEAN_MOTION_DDOT":0},{"OBJECT_NAME":"STARLINK-5949","OBJECT_ID":"2023-042AK","EPOCH":"2026-01-22T11:17:42.008640","MEAN_MOTION":15.02521429,"ECCENTRICITY":0.0001568,"INCLINATION":43.0053,"RA_OF_ASC_NODE":294.5995,"ARG_OF_PERICENTER":275.8189,"MEAN_ANOMALY":84.2474,"EPHEMERIS_TYPE":0,"CLASSIFICATION_TYPE":"U","NORAD_CAT_ID":56019,"ELEMENT_SET_NO":999,"REV_AT_EPOCH":15610,"BSTAR":0.00012542517,"MEAN_MOTION_DOT":1.49e-5,"MEAN_MOTION_DDOT":0},{"OBJECT_NAME":"STARLINK-5912","OBJECT_ID":"2023-042AL","EPOCH":"2026-01-22T19:01:58.695744","MEAN_MOTION":15.02548438,"ECCENTRICITY":6.338e-5,"INCLINATION":43.0007,"RA_OF_ASC_NODE":292.7233,"ARG_OF_PERICENTER":304.1661,"MEAN_ANOMALY":55.9121,"EPHEMERIS_TYPE":0,"CLASSIFICATION_TYPE":"U","NORAD_CAT_ID":56020,"ELEMENT_SET_NO":999,"REV_AT_EPOCH":15615,"BSTAR":-0.00012999585,"MEAN_MOTION_DOT":-1.96e-5,"MEAN_MOTION_DDOT":0},{"OBJECT_NAME":"STARLINK-5907","OBJECT_ID":"2023-042AM","EPOCH":"2026-01-22T19:06:45.141120","MEAN_MOTION":15.02537481,"ECCENTRICITY":4.869e-5,"INCLINATION":42.9979,"RA_OF_ASC_NODE":292.7423,"ARG_OF_PERICENTER":263.1257,"MEAN_ANOMALY":96.953,"EPHEMERIS_TYPE":0,"CLASSIFICATION_TYPE":"U","NORAD_CAT_ID":56021,"ELEMENT_SET_NO":999,"REV_AT_EPOCH":15615,"BSTAR":-0.00025491903,"MEAN_MOTION_DOT":-3.645e-5,"MEAN_MOTION_DDOT":0},{"OBJECT_NAME":"STARLINK-5783","OBJECT_ID":"2023-042AN","EPOCH":"2026-01-22T18:42:48.141504","MEAN_MOTION":15.02518222,"ECCENTRICITY":0.00010622,"INCLINATION":43.0066,"RA_OF_ASC_NODE":292.6198,"ARG_OF_PERICENTER":267.6896,"MEAN_ANOMALY":92.3824,"EPHEMERIS_TYPE":0,"CLASSIFICATION_TYPE":"U","NORAD_CAT_ID":56022,"ELEMENT_SET_NO":999,"REV_AT_EPOCH":15615,"BSTAR":0.00033930872,"MEAN_MOTION_DOT":4.381e-5,"MEAN_MOTION_DDOT":0},{"OBJECT_NAME":"STARLINK-5771","OBJECT_ID":"2023-042AP","EPOCH":"2026-01-22T18:50:46.984128","MEAN_MOTION":15.02532304,"ECCENTRICITY":0.00012111,"INCLINATION":43.0026,"RA_OF_ASC_NODE":292.6562,"ARG_OF_PERICENTER":284.9758,"MEAN_ANOMALY":75.095,"EPHEMERIS_TYPE":0,"CLASSIFICATION_TYPE":"U","NORAD_CAT_ID":56023,"ELEMENT_SET_NO":999,"REV_AT_EPOCH":15615,"BSTAR":0.00012206363,"MEAN_MOTION_DOT":1.445e-5,"MEAN_MOTION_DDOT":0},{"OBJECT_NAME":"STARLINK-5772","OBJECT_ID":"2023-042AQ","EPOCH":"2026-01-22T18:28:25.420224","MEAN_MOTION":15.02524733,"ECCENTRICITY":0.00022455,"INCLINATION":43.0045,"RA_OF_ASC_NODE":292.541,"ARG_OF_PERICENTER":264.0849,"MEAN_ANOMALY":95.9737,"EPHEMERIS_TYPE":0,"CLASSIFICATION_TYPE":"U","NORAD_CAT_ID":56024,"ELEMENT_SET_NO":999,"REV_AT_EPOCH":15615,"BSTAR":-3.6856529e-5,"MEAN_MOTION_DOT":-7.02e-6,"MEAN_MOTION_DDOT":0},{"OBJECT_NAME":"STARLINK-5766","OBJECT_ID":"2023-042AR","EPOCH":"2026-01-22T19:30:43.333056","MEAN_MOTION":15.02539289,"ECCENTRICITY":0.00012484,"INCLINATION":43.0035,"RA_OF_ASC_NODE":292.8571,"ARG_OF_PERICENTER":267.385,"MEAN_ANOMALY":92.6849,"EPHEMERIS_TYPE":0,"CLASSIFICATION_TYPE":"U","NORAD_CAT_ID":56025,"ELEMENT_SET_NO":999,"REV_AT_EPOCH":15615,"BSTAR":-6.0563443e-5,"MEAN_MOTION_DOT":-1.022e-5,"MEAN_MOTION_DDOT":0},{"OBJECT_NAME":"STARLINK-5770","OBJECT_ID":"2023-042AS","EPOCH":"2026-01-22T18:41:13.536096","MEAN_MOTION":15.02529071,"ECCENTRICITY":0.00010241,"INCLINATION":43.0019,"RA_OF_ASC_NODE":292.6108,"ARG_OF_PERICENTER":243.4951,"MEAN_ANOMALY":116.5787,"EPHEMERIS_TYPE":0,"CLASSIFICATION_TYPE":"U","NORAD_CAT_ID":56026,"ELEMENT_SET_NO":999,"REV_AT_EPOCH":15615,"BSTAR":0.00070660377,"MEAN_MOTION_DOT":9.352e-5,"MEAN_MOTION_DDOT":0},{"OBJECT_NAME":"STARLINK-5777","OBJECT_ID":"2023-042AT","EPOCH":"2026-01-22T21:57:26.811360","MEAN_MOTION":15.0251685,"ECCENTRICITY":0.00015032,"INCLINATION":43.0016,"RA_OF_ASC_NODE":291.9106,"ARG_OF_PERICENTER":280.0813,"MEAN_ANOMALY":79.9859,"EPHEMERIS_TYPE":0,"CLASSIFICATION_TYPE":"U","NORAD_CAT_ID":56027,"ELEMENT_SET_NO":999,"REV_AT_EPOCH":15617,"BSTAR":0.00025065381,"MEAN_MOTION_DOT":3.182e-5,"MEAN_MOTION_DDOT":0},{"OBJECT_NAME":"STARLINK-5779","OBJECT_ID":"2023-042AU","EPOCH":"2026-01-22T18:22:02.018496","MEAN_MOTION":15.02517935,"ECCENTRICITY":0.00020315,"INCLINATION":43.0049,"RA_OF_ASC_NODE":292.5084,"ARG_OF_PERICENTER":254.2768,"MEAN_ANOMALY":105.785,"EPHEMERIS_TYPE":0,"CLASSIFICATION_TYPE":"U","NORAD_CAT_ID":56028,"ELEMENT_SET_NO":999,"REV_AT_EPOCH":15615,"BSTAR":-2.752611e-6,"MEAN_MOTION_DOT":-2.41e-6,"MEAN_MOTION_DDOT":0}]
